{
  "type": "FeatureCollection",
  "features": [
    {
      "type": "Feature",
      "properties": {
        "norad_id": 36828,
        "name": "BEIDOU-2 IGSO-1 (C06)",
        "group": "beidou",
        "lat": -53.36218547976474,
        "lon": 89.04244860438261,
        "alt_km": 35691.33410008756,
        "timestamp": "2025-12-13T16:48:32.975367+00:00",
        "meta_object_name": "BEIDOU-2 IGSO-1 (C06)",
        "meta_object_id": "2010-036A",
        "meta_epoch": "2025-12-12T21:56:21.549120",
        "meta_mean_motion": 1.00276081,
        "meta_eccentricity": 0.00512083,
        "meta_inclination": 54.2861,
        "meta_ra_of_asc_node": 164.6456,
        "meta_arg_of_pericenter": 215.8019,
        "meta_mean_anomaly": 138.385,
        "meta_ephemeris_type": 0,
        "meta_classification_type": "U",
        "meta_norad_cat_id": 36828,
        "meta_element_set_no": 999,
        "meta_rev_at_epoch": 5622,
        "meta_bstar": 0,
        "meta_mean_motion_dot": -3.7e-07,
        "meta_mean_motion_ddot": 0,
        "tle_line1": "1 36828U 10036A   25346.91413830 -.00000037  00000+0  00000+0 0  9995",
        "tle_line2": "2 36828  54.2861 164.6456 0051208 215.8019 138.3850  1.00276081 56227"
      },
      "geometry": {
        "type": "Point",
        "coordinates": [
          89.04244860438261,
          -53.36218547976474
        ]
      }
    },
    {
      "type": "Feature",
      "properties": {
        "norad_id": 37210,
        "name": "BEIDOU-2 G4 (C04)",
        "group": "beidou",
        "lat": 2.8920439905639466,
        "lon": 134.70071679851236,
        "alt_km": 35812.939365687416,
        "timestamp": "2025-12-13T16:48:32.975390+00:00",
        "meta_object_name": "BEIDOU-2 G4 (C04)",
        "meta_object_id": "2010-057A",
        "meta_epoch": "2025-12-12T22:48:10.954656",
        "meta_mean_motion": 1.00271593,
        "meta_eccentricity": 0.00108604,
        "meta_inclination": 3.1855,
        "meta_ra_of_asc_node": 69.9384,
        "meta_arg_of_pericenter": 191.083,
        "meta_mean_anomaly": 322.988,
        "meta_ephemeris_type": 0,
        "meta_classification_type": "U",
        "meta_norad_cat_id": 37210,
        "meta_element_set_no": 999,
        "meta_rev_at_epoch": 5542,
        "meta_bstar": 0,
        "meta_mean_motion_dot": -1e-06,
        "meta_mean_motion_ddot": 0,
        "tle_line1": "1 37210U 10057A   25346.95012679 -.00000100  00000+0  00000+0 0  9995",
        "tle_line2": "2 37210   3.1855  69.9384 0010860 191.0830 322.9880  1.00271593 55429"
      },
      "geometry": {
        "type": "Point",
        "coordinates": [
          134.70071679851236,
          2.8920439905639466
        ]
      }
    },
    {
      "type": "Feature",
      "properties": {
        "norad_id": 37256,
        "name": "BEIDOU-2 IGSO-2 (C07)",
        "group": "beidou",
        "lat": 8.961959269568196,
        "lon": 85.92647832795133,
        "alt_km": 35642.80676100935,
        "timestamp": "2025-12-13T16:48:32.975405+00:00",
        "meta_object_name": "BEIDOU-2 IGSO-2 (C07)",
        "meta_object_id": "2010-068A",
        "meta_epoch": "2025-12-03T17:22:36.027840",
        "meta_mean_motion": 1.0028872,
        "meta_eccentricity": 0.00492449,
        "meta_inclination": 47.9042,
        "meta_ra_of_asc_node": 274.2614,
        "meta_arg_of_pericenter": 216.1411,
        "meta_mean_anomaly": 310.24,
        "meta_ephemeris_type": 0,
        "meta_classification_type": "U",
        "meta_norad_cat_id": 37256,
        "meta_element_set_no": 999,
        "meta_rev_at_epoch": 5483,
        "meta_bstar": 0,
        "meta_mean_motion_dot": -2.25e-06,
        "meta_mean_motion_ddot": 0,
        "tle_line1": "1 37256U 10068A   25337.72402810 -.00000225  00000+0  00000+0 0  9990",
        "tle_line2": "2 37256  47.9042 274.2614 0049244 216.1411 310.2400  1.00288720 54834"
      },
      "geometry": {
        "type": "Point",
        "coordinates": [
          85.92647832795133,
          8.961959269568196
        ]
      }
    },
    {
      "type": "Feature",
      "properties": {
        "norad_id": 37384,
        "name": "BEIDOU-2 IGSO-3 (C08)",
        "group": "beidou",
        "lat": 34.730325505680916,
        "lon": 63.40870699640858,
        "alt_km": 35908.931861994424,
        "timestamp": "2025-12-13T16:48:32.975420+00:00",
        "meta_object_name": "BEIDOU-2 IGSO-3 (C08)",
        "meta_object_id": "2011-013A",
        "meta_epoch": "2025-12-12T16:08:36.948768",
        "meta_mean_motion": 1.0027095,
        "meta_eccentricity": 0.00354506,
        "meta_inclination": 62.1436,
        "meta_ra_of_asc_node": 41.9157,
        "meta_arg_of_pericenter": 187.5119,
        "meta_mean_anomaly": 201.8968,
        "meta_ephemeris_type": 0,
        "meta_classification_type": "U",
        "meta_norad_cat_id": 37384,
        "meta_element_set_no": 999,
        "meta_rev_at_epoch": 5379,
        "meta_bstar": 0,
        "meta_mean_motion_dot": -1.97e-06,
        "meta_mean_motion_ddot": 0,
        "tle_line1": "1 37384U 11013A   25346.67264987 -.00000197  00000+0  00000+0 0  9996",
        "tle_line2": "2 37384  62.1436  41.9157 0035450 187.5119 201.8968  1.00270950 53797"
      },
      "geometry": {
        "type": "Point",
        "coordinates": [
          63.40870699640858,
          34.730325505680916
        ]
      }
    },
    {
      "type": "Feature",
      "properties": {
        "norad_id": 37763,
        "name": "BEIDOU-2 IGSO-4 (C09)",
        "group": "beidou",
        "lat": -53.90031253387553,
        "lon": 65.02474430227814,
        "alt_km": 35255.65947218111,
        "timestamp": "2025-12-13T16:48:32.975432+00:00",
        "meta_object_name": "BEIDOU-2 IGSO-4 (C09)",
        "meta_object_id": "2011-038A",
        "meta_epoch": "2025-12-10T12:04:03.489024",
        "meta_mean_motion": 1.00284678,
        "meta_eccentricity": 0.01490344,
        "meta_inclination": 54.5829,
        "meta_ra_of_asc_node": 167.3658,
        "meta_arg_of_pericenter": 230.2355,
        "meta_mean_anomaly": 317.2212,
        "meta_ephemeris_type": 0,
        "meta_classification_type": "U",
        "meta_norad_cat_id": 37763,
        "meta_element_set_no": 999,
        "meta_rev_at_epoch": 5275,
        "meta_bstar": 0,
        "meta_mean_motion_dot": 3.6e-07,
        "meta_mean_motion_ddot": 0,
        "tle_line1": "1 37763U 11038A   25344.50281816  .00000036  00000+0  00000+0 0  9995",
        "tle_line2": "2 37763  54.5829 167.3658 0149034 230.2355 317.2212  1.00284678 52751"
      },
      "geometry": {
        "type": "Point",
        "coordinates": [
          65.02474430227814,
          -53.90031253387553
        ]
      }
    },
    {
      "type": "Feature",
      "properties": {
        "norad_id": 37948,
        "name": "BEIDOU-2 IGSO-5 (C10)",
        "group": "beidou",
        "lat": 19.86947234586148,
        "lon": 74.86782732334159,
        "alt_km": 35611.3826479851,
        "timestamp": "2025-12-13T16:48:32.975444+00:00",
        "meta_object_name": "BEIDOU-2 IGSO-5 (C10)",
        "meta_object_id": "2011-073A",
        "meta_epoch": "2025-12-12T18:24:47.608416",
        "meta_mean_motion": 1.00291151,
        "meta_eccentricity": 0.01101752,
        "meta_inclination": 48.0199,
        "meta_ra_of_asc_node": 273.857,
        "meta_arg_of_pericenter": 222.308,
        "meta_mean_anomaly": 314.7254,
        "meta_ephemeris_type": 0,
        "meta_classification_type": "U",
        "meta_norad_cat_id": 37948,
        "meta_element_set_no": 999,
        "meta_rev_at_epoch": 5126,
        "meta_bstar": 0,
        "meta_mean_motion_dot": -2.21e-06,
        "meta_mean_motion_ddot": 0,
        "tle_line1": "1 37948U 11073A   25346.76721769 -.00000221  00000+0  00000+0 0  9992",
        "tle_line2": "2 37948  48.0199 273.8570 0110175 222.3080 314.7254  1.00291151 51268"
      },
      "geometry": {
        "type": "Point",
        "coordinates": [
          74.86782732334159,
          19.86947234586148
        ]
      }
    },
    {
      "type": "Feature",
      "properties": {
        "norad_id": 38091,
        "name": "BEIDOU-2 G5 (C05)",
        "group": "beidou",
        "lat": -1.8563283343731243,
        "lon": 33.749010397802316,
        "alt_km": 35790.20366838331,
        "timestamp": "2025-12-13T16:48:32.975456+00:00",
        "meta_object_name": "BEIDOU-2 G5 (C05)",
        "meta_object_id": "2012-008A",
        "meta_epoch": "2025-12-13T00:01:56.388576",
        "meta_mean_motion": 1.00275764,
        "meta_eccentricity": 0.00125754,
        "meta_inclination": 3.1102,
        "meta_ra_of_asc_node": 70.7112,
        "meta_arg_of_pericenter": 227.693,
        "meta_mean_anomaly": 202.8143,
        "meta_ephemeris_type": 0,
        "meta_classification_type": "U",
        "meta_norad_cat_id": 38091,
        "meta_element_set_no": 999,
        "meta_rev_at_epoch": 5050,
        "meta_bstar": 0,
        "meta_mean_motion_dot": 6.8e-07,
        "meta_mean_motion_ddot": 0,
        "tle_line1": "1 38091U 12008A   25347.00134709  .00000068  00000+0  00000+0 0  9999",
        "tle_line2": "2 38091   3.1102  70.7112 0012575 227.6930 202.8143  1.00275764 50509"
      },
      "geometry": {
        "type": "Point",
        "coordinates": [
          33.749010397802316,
          -1.8563283343731243
        ]
      }
    }
  ]
}